NORAD_CAT_ID,OBJECT_NAME,OBJECT_TYPE,EPOCH,MEAN_MOTION,ECCENTRICITY,INCLINATION,RA_OF_ASC_NODE,ARG_OF_PERICENTER,MEAN_ANOMALY,BSTAR,MEAN_MOTION_DOT,MEAN_MOTION_DDOT,TLE_LINE0,TLE_LINE1,TLE_LINE2,SEMIMAJOR_AXIS,PERIOD,APOGEE,PERIGEE,DECAYED
50174.0,STARLINK-3292,PAYLOAD,2022-06-11 18:06:03,15.08832611,0.0002056,53.2193,265.5416,40.3157,319.7988,9.6084e-05,1.241e-05,0.0,0 STARLINK-3292,1 50174U 21125U   22162.75420572  .00001241  00000-0  96084-4 0  9992,2 50174  53.2193 265.5416 0002056  40.3157 319.7988 15.08832611 30287,6917.903,95.438,541.19,538.346,0.0
50174.0,STARLINK-3292,PAYLOAD,2022-06-12 13:10:40,15.08849326,0.0002066,53.2191,261.9731,40.5487,319.5659,0.00011857,1.6e-05,0.0,0 STARLINK-3292,1 50174U 21125U   22163.54907505  .00001600  00000-0  11857-3 0  9999,2 50174  53.2191 261.9731 0002066  40.5487 319.5659 15.08849326 29871,6917.852,95.437,541.146,538.288,0.0
50174.0,STARLINK-3292,PAYLOAD,2022-06-12 16:21:26,15.08851135,0.0002101,53.2191,261.3787,40.337,319.7778,0.00013286,1.828e-05,0.0,0 STARLINK-3292,1 50174U 21125U   22163.68155308  .00001828  00000-0  13286-3 0  9990,2 50174  53.2191 261.3787 0002101  40.3370 319.7778 15.08851135 30423,6917.846,95.437,541.165,538.258,0.0
50174.0,STARLINK-3292,PAYLOAD,2022-06-13 13:01:26,15.08852099,0.0002113,53.2187,257.5134,39.3089,320.8056,0.00015928,2.248e-05,0.0,0 STARLINK-3292,1 50174U 21125U   22164.54266776  .00002248  00000-0  15928-3 0  9990,2 50174  53.2187 257.5134 0002113  39.3089 320.8056 15.08852099 30555,6917.843000000003,95.437,541.17,538.247,0.0
50174.0,STARLINK-3292,PAYLOAD,2022-06-13 16:12:13,15.08847167,0.0002132,53.2185,256.91900000000004,36.3468,323.7668,0.00012694,1.733e-05,0.0,0 STARLINK-3292,1 50174U 21125U   22164.67515117  .00001733  00000-0  12694-3 0  9995,2 50174  53.2185 256.9190 0002132  36.3468 323.7668 15.08847167 30570,6917.858,95.437,541.198,538.249,0.0
50174.0,STARLINK-3292,PAYLOAD,2022-06-14 12:52:14,15.08842821,0.0002102,53.2181,253.0526,37.7239,322.39,-1.6674e-05,-5.54e-06,0.0,0 STARLINK-3292,1 50174U 21125U   22165.53627513 -.00000554  00000-0 -16674-4 0  9990,2 50174  53.2181 253.0526 0002102  37.7239 322.3900 15.08842821 30177,6917.871999999999,95.437,541.191,538.283,0.0
50174.0,STARLINK-3292,PAYLOAD,2022-06-15 12:43:01,15.08840392,0.0002134,53.2188,248.5933,35.1359,324.9774,-3.864e-05,-9.03e-06,0.0,0 STARLINK-3292,1 50174U 21125U   22166.52987659 -.00000903  00000-0 -38640-4 0  9995,2 50174  53.2188 248.5933 0002134  35.1359 324.9774 15.08840392 30858,6917.879,95.438,541.22,538.268,0.0
50174.0,STARLINK-3292,PAYLOAD,2022-06-19 10:30:47,15.08836998,0.0002284,53.2182,231.0485,39.2555,320.8602,8.5476e-05,1.072e-05,0.0,0 STARLINK-3292,1 50174U 21125U   22170.43805106  .00001072  00000-0  85476-4 0  9991,2 50174  53.2182 231.0485 0002284  39.2555 320.8602 15.08836998 31448,6917.89,95.438,541.335,538.175,0.0
50174.0,STARLINK-3292,PAYLOAD,2022-06-19 13:41:33,15.08837711,0.000239,53.2179,230.4545,40.0829,320.0339,0.00015824,2.231e-05,0.0,0 STARLINK-3292,1 50174U 21125U   22170.57052882  .00002231  00000-0  15824-3 0  9998,2 50174  53.2179 230.4545 0002390  40.0829 320.0339 15.08837711 30932,6917.887,95.438,541.406,538.099,0.0
50174.0,STARLINK-3292,PAYLOAD,2022-06-20 10:21:34,15.08835752,0.0002374,53.2181,226.5886,41.7362,318.3811,0.00010625,1.403e-05,0.0,0 STARLINK-3292,1 50174U 21125U   22171.43165318  .00001403  00000-0  10625-3 0  9997,2 50174  53.2181 226.5886 0002374  41.7362 318.3811 15.08835752 31592,6917.893,95.438,541.401,538.116,0.0
50174.0,STARLINK-3292,PAYLOAD,2022-06-20 13:32:21,15.08839257,0.0002343,53.2177,225.9931,37.157,322.9584,8.1354e-05,1.007e-05,0.0,0 STARLINK-3292,1 50174U 21125U   22171.56413195  .00001007  00000-0  81354-4 0  9998,2 50174  53.2177 225.9931 0002343  37.1570 322.9584 15.08839257 31612,6917.8830000000025,95.438,541.369,538.127,0.0
50174.0,STARLINK-3292,PAYLOAD,2022-06-21 13:23:07,15.08840837,0.000229,53.2176,221.5335,37.8771,322.2382,-3.7087e-05,-8.79e-06,0.0,0 STARLINK-3292,1 50174U 21125U   22172.55773137 -.00000879  00000-0 -37087-4 0  9995,2 50174  53.2176 221.5335 0002290  37.8771 322.2382 15.08840837 31763,6917.878000000002,95.438,541.327,538.159,0.0
50174.0,STARLINK-3292,PAYLOAD,2022-06-22 03:41:36,15.08836227,0.0002299,53.2172,218.8569,36.0088,324.1059,6.782400000000001e-06,-1.8e-06,0.0,0 STARLINK-3292,1 50174U 21125U   22173.15389174 -.00000180  00000-0  67824-5 0  9993,2 50174  53.2172 218.8569 0002299  36.0088 324.1059 15.08836227 31320,6917.892,95.438,541.347,538.1659999999998,0.0
50174.0,STARLINK-3292,PAYLOAD,2022-06-22 11:38:31,15.08839487,0.0002346,53.2174,217.3704,33.0217,327.0921,5.311399999999999e-05,5.57e-06,0.0,0 STARLINK-3292,1 50174U 21125U   22173.48508838  .00000557  00000-0  53114-4 0  9992,2 50174  53.2174 217.3704 0002346  33.0217 327.0921 15.08839487 31906,6917.882,95.438,541.37,538.124,0.0
50174.0,STARLINK-3292,PAYLOAD,2022-06-22 19:35:26,15.08865382,0.0002204,53.2174,215.8836,38.5641,321.5508,-0.00028785,-4.870000000000001e-05,0.0,0 STARLINK-3292,1 50174U 21125U   22173.81628088 -.00004870  00000-0 -28785-3 0  9998,2 50174  53.2174 215.8836 0002204  38.5641 321.5508 15.08865382 31429,6917.803000000001,95.436,541.192,538.143,0.0
50174.0,STARLINK-3292,PAYLOAD,2022-06-23 01:56:59,15.0884096,0.0002352,53.2176,214.6945,38.057,322.0588,8.422200000000001e-05,1.052e-05,0.0,0 STARLINK-3292,1 50174U 21125U   22174.08124407  .00001052  00000-0  84222-4 0  9990,2 50174  53.2176 214.6945 0002352  38.0570 322.0588 15.08840960 31462,6917.877,95.437,541.37,538.115,0.0
50174.0,STARLINK-3292,PAYLOAD,2022-06-23 09:53:56,15.08785945,0.0002602,53.2183,213.2078,41.4611,318.6578,0.00077653,0.00012074,0.0,0 STARLINK-3292,1 50174U 21125U   22174.41245557  .00012074  00000-0  77653-3 0  9992,2 50174  53.2183 213.2078 0002602  41.4611 318.6578 15.08785945 31511,6918.045999999999,95.441,541.711,538.111,0.0
50174.0,STARLINK-3292,PAYLOAD,2022-06-23 11:29:18,15.08832689,0.0002309,53.2173,212.9103,37.2331,322.8821,7.7083e-06,-1.66e-06,0.0,0 STARLINK-3292,1 50174U 21125U   22174.47869153 -.00000166  00000-0  77083-5 0  9991,2 50174  53.2173 212.9103 0002309  37.2331 322.8821 15.08832689 32057,6917.903,95.438,541.365,538.17,0.0
50174.0,STARLINK-3292,PAYLOAD,2022-06-23 19:26:14,15.08829959,0.0002337,53.2171,211.4235,37.397,322.7184,4.9363e-06,-2.1e-06,0.0,0 STARLINK-3292,1 50174U 21125U   22174.80989468 -.00000210  00000-0  49363-5 0  9990,2 50174  53.2171 211.4235 0002337  37.3970 322.7184 15.08829959 31579,6917.911,95.438,541.393,538.159,0.0
50174.0,STARLINK-3292,PAYLOAD,2022-06-24 09:44:43,15.08834525,0.0002372,53.2172,208.7471,38.6378,321.4784,-9.763e-06,-4.44e-06,0.0,0 STARLINK-3292,1 50174U 21125U   22175.40605506 -.00000444  00000-0 -97630-5 0  9995,2 50174  53.2172 208.7471 0002372  38.6378 321.4784 15.08834525 32192,6917.897,95.438,541.403,538.121,0.0
50174.0,STARLINK-3292,PAYLOAD,2022-06-24 19:17:01,15.08837176,0.0002391,53.2173,206.9632,39.0371,321.0794,-1.5391e-05,-5.33e-06,0.0,0 STARLINK-3292,1 50174U 21125U   22175.80349440 -.00000533  00000-0 -15391-4 0  9993,2 50174  53.2173 206.9632 0002391  39.0371 321.0794 15.08837176 31721,6917.889,95.438,541.408,538.1,0.0
50174.0,STARLINK-3292,PAYLOAD,2022-06-25 01:38:34,15.08855775,0.0002288,53.2172,205.7736,36.1498,323.9649,-0.00023745,-4.067e-05,0.0,0 STARLINK-3292,1 50174U 21125U   22176.06845262 -.00004067  00000-0 -23745-3 0  9992,2 50174  53.2172 205.7736 0002288  36.1498 323.9649 15.08855775 31764,6917.831999999999,95.437,541.28,538.114,0.0
50174.0,STARLINK-3292,PAYLOAD,2022-06-25 09:35:29,15.08853669,0.0002427,53.2174,204.2869,36.792,323.3238,-0.00019015,-3.315e-05,0.0,0 STARLINK-3292,1 50174U 21125U   22176.39965026 -.00003315  00000-0 -19015-3 0  9999,2 50174  53.2174 204.2869 0002427  36.7920 323.3238 15.08853669 32341,6917.839,95.437,541.383,538.025,0.0
50174.0,STARLINK-3292,PAYLOAD,2022-06-25 19:07:48,15.0883505,0.0002439,53.2177,202.5028,39.9755,320.1416,8.3832e-05,1.046e-05,0.0,0 STARLINK-3292,1 50174U 21125U   22176.79709450  .00001046  00000-0  83832-4 0  9996,2 50174  53.2177 202.5028 0002439  39.9755 320.1416 15.08835050 31870,6917.896,95.438,541.448,538.073,0.0
50174.0,STARLINK-3292,PAYLOAD,2022-06-26 07:50:53,15.08839657,0.000246,53.2177,200.1239,40.9128,319.2049,9.7695e-05,1.267e-05,0.0,0 STARLINK-3292,1 50174U 21125U   22177.32701254  .00001267  00000-0  97695-4 0  9997,2 50174  53.2177 200.1239 0002460  40.9128 319.2049 15.08839657 32484,6917.880999999999,95.438,541.448,538.045,0.0
50174.0,STARLINK-3292,PAYLOAD,2022-06-26 18:58:35,15.08842181,0.0002499,53.2177,198.0425,41.6359,318.4823,8.275200000000001e-05,1.029e-05,0.0,0 STARLINK-3292,1 50174U 21125U   22177.79069103  .00001029  00000-0  82752-4 0  9992,2 50174  53.2177 198.0425 0002499  41.6359 318.4823 15.08842181 32557,6917.874,95.437,541.467,538.01,0.0
50174.0,STARLINK-3292,PAYLOAD,2022-06-27 04:30:55,15.08833677,0.0002529,53.2178,196.2585,43.1876,316.9314,-2.3867e-06,-3.26e-06,0.0,0 STARLINK-3292,1 50174U 21125U   22178.18813955 -.00000326  00000-0 -23867-5 0  9992,2 50174  53.2178 196.2585 0002529  43.1876 316.9314 15.08833677 32086,6917.9,95.438,541.514,538.015,0.0
50174.0,STARLINK-3292,PAYLOAD,2022-06-27 07:41:41,15.08830765,0.0002531,53.2177,195.6637,43.167,316.952,-3.3646e-05,-8.24e-06,0.0,0 STARLINK-3292,1 50174U 21125U   22178.32062295 -.00000824  00000-0 -33646-4 0  9999,2 50174  53.2177 195.6637 0002531  43.1670 316.9520 15.08830765 32636,6917.909000000002,95.438,541.525,538.023,0.0
50174.0,STARLINK-3292,PAYLOAD,2022-06-28 10:43:15,15.08832401,0.0002576,53.2178,190.609,44.1448,315.975,-4.1224e-05,-9.44e-06,0.0,0 STARLINK-3292,1 50174U 21125U   22179.44670698 -.00000944  00000-0 -41224-4 0  9999,2 50174  53.2178 190.6090 0002576  44.1448 315.9750 15.08832401 32271,6917.904,95.438,541.5509999999998,537.987,0.0
